H1 CPF  1  DGF 2022 03 08 11  5671 larets     NONE      
H2   304206 5557    27944 2022 03 08 00 00 00 2022 03 15 00 00 00    30 1 1  0 0 0
H5  0.0650
H9
10 0 59650  82800.000000  0       4534738.296       3890491.763       3774242.145
10 0 59650  82830.000000  0       4475281.936       3772611.557       3959842.785
10 0 59650  82860.000000  0       4410778.322       3651188.934       4141411.109
10 0 59650  82890.000000  0       4341277.845       3526368.916       4318762.566
10 0 59650  82920.000000  0       4266836.591       3398299.713       4491716.931
10 0 59650  82950.000000  0       4187516.298       3267132.548       4660098.494
10 0 59650  82980.000000  0       4103384.294       3133021.477       4823736.240
10 0 59650  83010.000000  0       4014513.436       2996123.194       4982464.025
10 0 59650  83040.000000  0       3920982.035       2856596.849       5136120.732
10 0 59650  83070.000000  0       3822873.783       2714603.860       5284550.422
10 0 59650  83100.000000  0       3720277.680       2570307.732       5427602.490
10 0 59650  83130.000000  0       3613287.950       2423873.864       5565131.812
10 0 59650  83160.000000  0       3502003.951       2275469.362       5696998.887
10 0 59650  83190.000000  0       3386530.082       2125262.845       5823069.977
10 0 59650  83220.000000  0       3266975.682       1973424.252       5943217.233
10 0 59650  83250.000000  0       3143454.923       1820124.649       6057318.820
10 0 59650  83280.000000  0       3016086.699       1665536.033       6165259.037
10 0 59650  83310.000000  0       2884994.512       1509831.143       6266928.422
10 0 59650  83340.000000  0       2750306.345       1353183.266       6362223.861
10 0 59650  83370.000000  0       2612154.539       1195766.042       6451048.683
10 0 59650  83400.000000  0       2470675.665       1037753.281       6533312.751
10 0 59650  83430.000000  0       2326010.384        879318.771       6608932.555
10 0 59650  83460.000000  0       2178303.310        720636.089       6677831.285
10 0 59650  83490.000000  0       2027702.865        561878.415       6739938.913
10 0 59650  83520.000000  0       1874361.129        403218.344       6795192.261
10 0 59650  83550.000000  0       1718433.689        244827.702       6843535.060
10 0 59650  83580.000000  0       1560079.483         86877.360       6884918.010
10 0 59650  83610.000000  0       1399460.633        -70462.948       6919298.828
10 0 59650  83640.000000  0       1236742.284       -227024.812       6946642.291
10 0 59650  83670.000000  0       1072092.434       -382641.326       6966920.266
10 0 59650  83700.000000  0        905681.760       -537147.258       6980111.737
10 0 59650  83730.000000  0        737683.447       -690379.230       6986202.827
10 0 59650  83760.000000  0        568273.009       -842175.883       6985186.815
10 0 59650  83790.000000  0        397628.102       -992378.052       6977064.149
10 0 59650  83820.000000  0        225928.345      -1140828.928       6961842.440
10 0 59650  83850.000000  0         53355.129      -1287374.225       6939536.459
10 0 59650  83880.000000  0       -119908.571      -1431862.339       6910168.128
10 0 59650  83910.000000  0       -293678.387      -1574144.505       6873766.498
10 0 59650  83940.000000  0       -467768.758      -1714074.949       6830367.722
10 0 59650  83970.000000  0       -641993.120      -1851511.039       6780015.026
10 0 59650  84000.000000  0       -816164.109      -1986313.432       6722758.663
10 0 59650  84030.000000  0       -990093.753      -2118346.211       6658655.870
10 0 59650  84060.000000  0      -1163593.673      -2247477.022       6587770.816
10 0 59650  84090.000000  0      -1336475.284      -2373577.209       6510174.549
10 0 59650  84120.000000  0      -1508549.998      -2496521.945       6425944.928
10 0 59650  84150.000000  0      -1679629.425      -2616190.351       6335166.565
10 0 59650  84180.000000  0      -1849525.585      -2732465.629       6237930.737
10 0 59650  84210.000000  0      -2018051.111      -2845235.171       6134335.316
10 0 59650  84240.000000  0      -2185019.457      -2954390.679       6024484.670
10 0 59650  84270.000000  0      -2350245.113      -3059828.274       5908489.576
10 0 59650  84300.000000  0      -2513543.808      -3161448.598       5786467.108
10 0 59650  84330.000000  0      -2674732.728      -3259156.914       5658540.534
10 0 59650  84360.000000  0      -2833630.721      -3352863.199       5524839.188
10 0 59650  84390.000000  0      -2990058.508      -3442482.231       5385498.352
10 0 59650  84420.000000  0      -3143838.885      -3527933.671       5240659.117
10 0 59650  84450.000000  0      -3294796.932      -3609142.136       5090468.250
10 0 59650  84480.000000  0      -3442760.211      -3686037.275       4935078.048
10 0 59650  84510.000000  0      -3587558.969      -3758553.831       4774646.188
10 0 59650  84540.000000  0      -3729026.336      -3826631.699       4609335.576
10 0 59650  84570.000000  0      -3866998.525      -3890215.983       4439314.180
10 0 59650  84600.000000  0      -4001315.027      -3949257.044       4264754.867
10 0 59650  84630.000000  0      -4131818.797      -4003710.537       4085835.225
10 0 59650  84660.000000  0      -4258356.446      -4053537.450       3902737.391
10 0 59650  84690.000000  0      -4380778.426      -4098704.130       3715647.864
10 0 59650  84720.000000  0      -4498939.214      -4139182.309       3524757.321
10 0 59650  84750.000000  0      -4612697.487      -4174949.123       3330260.426
10 0 59650  84780.000000  0      -4721916.305      -4205987.121       3132355.626
10 0 59650  84810.000000  0      -4826463.278      -4232284.271       2931244.946
10 0 59650  84840.000000  0      -4926210.732      -4253833.958       2727133.786
10 0 59650  84870.000000  0      -5021035.872      -4270634.976       2520230.702
10 0 59650  84900.000000  0      -5110820.940      -4282691.509       2310747.189
10 0 59650  84930.000000  0      -5195453.357      -4290013.111       2098897.460
10 0 59650  84960.000000  0      -5274825.875      -4292614.676       1884898.224
10 0 59650  84990.000000  0      -5348836.714      -4290516.402       1668968.458
10 0 59650  85020.000000  0      -5417389.694      -4283743.749       1451329.178
10 0 59650  85050.000000  0      -5480394.361      -4272327.395       1232203.204
10 0 59650  85080.000000  0      -5537766.113      -4256303.176       1011814.927
10 0 59650  85110.000000  0      -5589426.307      -4235712.031        790390.068
10 0 59650  85140.000000  0      -5635302.370      -4210599.930        568155.441
10 0 59650  85170.000000  0      -5675327.894      -4181017.804        345338.713
10 0 59650  85200.000000  0      -5709442.732      -4147021.463        122168.159
10 0 59650  85230.000000  0      -5737593.085      -4108671.519       -101127.577
10 0 59650  85260.000000  0      -5759731.575      -4066033.286       -324319.730
10 0 59650  85290.000000  0      -5775817.318      -4019176.690       -547179.657
10 0 59650  85320.000000  0      -5785815.985      -3968176.165       -769479.084
10 0 59650  85350.000000  0      -5789699.853      -3913110.543       -990990.350
10 0 59650  85380.000000  0      -5787447.852      -3854062.939      -1211486.647
10 0 59650  85410.000000  0      -5779045.595      -3791120.636      -1430742.264
10 0 59650  85440.000000  0      -5764485.414      -3724374.956      -1648532.824
10 0 59650  85470.000000  0      -5743766.373      -3653921.140      -1864635.516
10 0 59650  85500.000000  0      -5716894.284      -3579858.211      -2078829.333
10 0 59650  85530.000000  0      -5683881.716      -3502288.843      -2290895.303
10 0 59650  85560.000000  0      -5644747.989      -3421319.221      -2500616.721
10 0 59650  85590.000000  0      -5599519.161      -3337058.897      -2707779.373
10 0 59650  85620.000000  0      -5548228.010      -3249620.643      -2912171.763
10 0 59650  85650.000000  0      -5490914.006      -3159120.302      -3113585.328
10 0 59650  85680.000000  0      -5427623.276      -3065676.633      -3311814.656
10 0 59650  85710.000000  0      -5358408.565      -2969411.158      -3506657.694
10 0 59650  85740.000000  0      -5283329.183      -2870448.003      -3697915.960
10 0 59650  85770.000000  0      -5202450.948      -2768913.738      -3885394.744
10 0 59650  85800.000000  0      -5115846.121      -2664937.211      -4068903.307
10 0 59650  85830.000000  0      -5023593.334      -2558649.391      -4248255.075
10 0 59650  85860.000000  0      -4925777.506      -2450183.197      -4423267.823
10 0 59650  85890.000000  0      -4822489.760      -2339673.332      -4593763.865
10 0 59650  85920.000000  0      -4713827.330      -2227256.119      -4759570.223
10 0 59650  85950.000000  0      -4599893.456      -2113069.325      -4920518.808
10 0 59650  85980.000000  0      -4480797.284      -1997252.001      -5076446.579
10 0 59650  86010.000000  0      -4356653.743      -1879944.299      -5227195.708
10 0 59650  86040.000000  0      -4227583.433      -1761287.313      -5372613.733
10 0 59650  86070.000000  0      -4093712.495      -1641422.898      -5512553.701
10 0 59650  86100.000000  0      -3955172.480      -1520493.510      -5646874.316
10 0 59650  86130.000000  0      -3812100.214      -1398642.028      -5775440.067
10 0 59650  86160.000000  0      -3664637.652      -1276011.592      -5898121.362
10 0 59650  86190.000000  0      -3512931.734      -1152745.430      -6014794.647
10 0 59650  86220.000000  0      -3357134.230      -1028986.695      -6125342.526
10 0 59650  86250.000000  0      -3197401.582       -904878.296      -6229653.867
10 0 59650  86280.000000  0      -3033894.742       -780562.738      -6327623.907
10 0 59650  86310.000000  0      -2866779.005       -656181.954      -6419154.344
10 0 59650  86340.000000  0      -2696223.836       -531877.155      -6504153.436
10 0 59650  86370.000000  0      -2522402.694       -407788.660      -6582536.076
99
